[{"OBJECT_NAME":"SEEDS II (CO-66)","OBJECT_ID":"2008-021J","EPOCH":"2026-03-09T22:06:22.421376","MEAN_MOTION":15.29097236,"ECCENTRICITY":0.00014475,"INCLINATION":97.7519,"RA_OF_ASC_NODE":62.3611,"ARG_OF_PERICENTER":359.2618,"MEAN_ANOMALY":0.8619,"EPHEMERIS_TYPE":0,"CLASSIFICATION_TYPE":"U","NORAD_CAT_ID":32791,"ELEMENT_SET_NO":999,"REV_AT_EPOCH":97210,"BSTAR":0.00084213052,"MEAN_MOTION_DOT":0.00023758,"MEAN_MOTION_DDOT":0},{"OBJECT_NAME":"STARLINK-30604","OBJECT_ID":"2023-160A","EPOCH":"2026-03-09T23:40:49.562400","MEAN_MOTION":15.26728625,"ECCENTRICITY":0.00051432,"INCLINATION":43.0091,"RA_OF_ASC_NODE":76.0129,"ARG_OF_PERICENTER":307.6879,"MEAN_ANOMALY":52.3506,"EPHEMERIS_TYPE":0,"CLASSIFICATION_TYPE":"U","NORAD_CAT_ID":58075,"ELEMENT_SET_NO":999,"REV_AT_EPOCH":13299,"BSTAR":0.00020541001,"MEAN_MOTION_DOT":5.252e-5,"MEAN_MOTION_DDOT":0}]
